CCSDS_OMM_VERS = 2.0
CREATION_DATE  = 
ORIGINATOR     = 

OBJECT_NAME    = SL-16 R/B
OBJECT_ID      = 1993-016B
CENTER_NAME    = EARTH
REF_FRAME      = TEME
TIME_SYSTEM    = UTC
MEAN_ELEMENT_THEORY = SGP/SGP4

EPOCH          = 2026-02-03T03:33:11.402496
MEAN_MOTION    = 14.15303514
ECCENTRICITY   = .00099366
INCLINATION    = 71.0082
RA_OF_ASC_NODE = 287.7327
ARG_OF_PERICENTER = 2.7071
MEAN_ANOMALY   = 357.4104

EPHEMERIS_TYPE = 0
CLASSIFICATION_TYPE = U
NORAD_CAT_ID   = 22566
ELEMENT_SET_NO = 999
REV_AT_EPOCH   = 69728
BSTAR          = .72171759E-4
MEAN_MOTION_DOT = .93E-6
MEAN_MOTION_DDOT = 0

CCSDS_OMM_VERS = 2.0
CREATION_DATE  = 
ORIGINATOR     = 

OBJECT_NAME    = COSMOS 2242
OBJECT_ID      = 1993-024A
CENTER_NAME    = EARTH
REF_FRAME      = TEME
TIME_SYSTEM    = UTC
MEAN_ELEMENT_THEORY = SGP/SGP4

EPOCH          = 2026-02-03T04:48:22.279968
MEAN_MOTION    = 14.96397499
ECCENTRICITY   = .0017948
INCLINATION    = 82.5203
RA_OF_ASC_NODE = 299.7017
ARG_OF_PERICENTER = 63.4816
MEAN_ANOMALY   = 296.8244

EPHEMERIS_TYPE = 0
CLASSIFICATION_TYPE = U
NORAD_CAT_ID   = 22626
ELEMENT_SET_NO = 999
REV_AT_EPOCH   = 77523
BSTAR          = .22746765E-3
MEAN_MOTION_DOT = .261E-4
MEAN_MOTION_DDOT = 0

CCSDS_OMM_VERS = 2.0
CREATION_DATE  = 
ORIGINATOR     = 

OBJECT_NAME    = SL-16 R/B
OBJECT_ID      = 1993-059B
CENTER_NAME    = EARTH
REF_FRAME      = TEME
TIME_SYSTEM    = UTC
MEAN_ELEMENT_THEORY = SGP/SGP4

EPOCH          = 2026-02-03T05:52:43.865760
MEAN_MOTION    = 14.17224561
ECCENTRICITY   = .00194889
INCLINATION    = 70.9894
RA_OF_ASC_NODE = 83.7672
ARG_OF_PERICENTER = 263.4798
MEAN_ANOMALY   = 96.4107

EPHEMERIS_TYPE = 0
CLASSIFICATION_TYPE = U
NORAD_CAT_ID   = 22803
ELEMENT_SET_NO = 999
REV_AT_EPOCH   = 67465
BSTAR          = .1442484E-3
MEAN_MOTION_DOT = .244E-5
MEAN_MOTION_DDOT = 0

CCSDS_OMM_VERS = 2.0
CREATION_DATE  = 
ORIGINATOR     = 

OBJECT_NAME    = ARIANE 40 R/B
OBJECT_ID      = 1993-061H
CENTER_NAME    = EARTH
REF_FRAME      = TEME
TIME_SYSTEM    = UTC
MEAN_ELEMENT_THEORY = SGP/SGP4

EPOCH          = 2026-02-03T04:51:01.809792
MEAN_MOTION    = 14.32841906
ECCENTRICITY   = .00111419
INCLINATION    = 98.4989
RA_OF_ASC_NODE = 103.7578
ARG_OF_PERICENTER = 32.0777
MEAN_ANOMALY   = 328.1083

EPHEMERIS_TYPE = 0
CLASSIFICATION_TYPE = U
NORAD_CAT_ID   = 22830
ELEMENT_SET_NO = 999
REV_AT_EPOCH   = 68916
BSTAR          = .10950821E-3
MEAN_MOTION_DOT = .256E-5
MEAN_MOTION_DDOT = 0

CCSDS_OMM_VERS = 2.0
CREATION_DATE  = 
ORIGINATOR     = 

OBJECT_NAME    = COSMOS 2278
OBJECT_ID      = 1994-023A
CENTER_NAME    = EARTH
REF_FRAME      = TEME
TIME_SYSTEM    = UTC
MEAN_ELEMENT_THEORY = SGP/SGP4

EPOCH          = 2026-02-03T07:06:58.826880
MEAN_MOTION    = 14.14365100
ECCENTRICITY   = .00063909
INCLINATION    = 71.0509
RA_OF_ASC_NODE = 247.0547
ARG_OF_PERICENTER = 78.2298
MEAN_ANOMALY   = 281.9541

EPHEMERIS_TYPE = 0
CLASSIFICATION_TYPE = U
NORAD_CAT_ID   = 23087
ELEMENT_SET_NO = 999
REV_AT_EPOCH   = 63994
BSTAR          = -.94700953E-4
MEAN_MOTION_DOT = -.228E-5
MEAN_MOTION_DDOT = 0

CCSDS_OMM_VERS = 2.0
CREATION_DATE  = 
ORIGINATOR     = 

OBJECT_NAME    = SL-16 R/B
OBJECT_ID      = 1994-023B
CENTER_NAME    = EARTH
REF_FRAME      = TEME
TIME_SYSTEM    = UTC
MEAN_ELEMENT_THEORY = SGP/SGP4

EPOCH          = 2026-02-02T12:14:48.642144
MEAN_MOTION    = 14.15004168
ECCENTRICITY   = .00044114
INCLINATION    = 71.0000
RA_OF_ASC_NODE = 144.7683
ARG_OF_PERICENTER = 318.0520
MEAN_ANOMALY   = 42.0264

EPHEMERIS_TYPE = 0
CLASSIFICATION_TYPE = U
NORAD_CAT_ID   = 23088
ELEMENT_SET_NO = 999
REV_AT_EPOCH   = 64111
BSTAR          = -.85744755E-4
MEAN_MOTION_DOT = -.214E-5
MEAN_MOTION_DDOT = 0

CCSDS_OMM_VERS = 2.0
CREATION_DATE  = 
ORIGINATOR     = 

OBJECT_NAME    = SL-16 R/B
OBJECT_ID      = 1994-074B
CENTER_NAME    = EARTH
REF_FRAME      = TEME
TIME_SYSTEM    = UTC
MEAN_ELEMENT_THEORY = SGP/SGP4

EPOCH          = 2026-02-03T02:18:29.270304
MEAN_MOTION    = 14.79364536
ECCENTRICITY   = .00060971
INCLINATION    = 97.7151
RA_OF_ASC_NODE = 66.3081
ARG_OF_PERICENTER = 346.9402
MEAN_ANOMALY   = 76.9401

EPHEMERIS_TYPE = 0
CLASSIFICATION_TYPE = U
NORAD_CAT_ID   = 23343
ELEMENT_SET_NO = 999
REV_AT_EPOCH   = 68213
BSTAR          = .75782435E-4
MEAN_MOTION_DOT = .515E-5
MEAN_MOTION_DDOT = 0

CCSDS_OMM_VERS = 2.0
CREATION_DATE  = 
ORIGINATOR     = 

OBJECT_NAME    = SL-16 R/B
OBJECT_ID      = 1994-077B
CENTER_NAME    = EARTH
REF_FRAME      = TEME
TIME_SYSTEM    = UTC
MEAN_ELEMENT_THEORY = SGP/SGP4

EPOCH          = 2026-02-03T05:05:41.332416
MEAN_MOTION    = 14.15556696
ECCENTRICITY   = .00045426
INCLINATION    = 70.9815
RA_OF_ASC_NODE = 65.0241
ARG_OF_PERICENTER = 242.3836
MEAN_ANOMALY   = 117.6825

EPHEMERIS_TYPE = 0
CLASSIFICATION_TYPE = U
NORAD_CAT_ID   = 23405
ELEMENT_SET_NO = 999
REV_AT_EPOCH   = 61135
BSTAR          = -.57999634E-4
MEAN_MOTION_DOT = -.161E-5
MEAN_MOTION_DDOT = 0

CCSDS_OMM_VERS = 2.0
CREATION_DATE  = 
ORIGINATOR     = 

OBJECT_NAME    = ARIANE 40+ R/B
OBJECT_ID      = 1995-021B
CENTER_NAME    = EARTH
REF_FRAME      = TEME
TIME_SYSTEM    = UTC
MEAN_ELEMENT_THEORY = SGP/SGP4

EPOCH          = 2026-02-03T04:47:48.804288
MEAN_MOTION    = 14.39745720
ECCENTRICITY   = .00058145
INCLINATION    = 98.4567
RA_OF_ASC_NODE = 106.1376
ARG_OF_PERICENTER = 239.7952
MEAN_ANOMALY   = 140.8409

EPHEMERIS_TYPE = 0
CLASSIFICATION_TYPE = U
NORAD_CAT_ID   = 23561
ELEMENT_SET_NO = 999
REV_AT_EPOCH   = 61428
BSTAR          = .11837029E-3
MEAN_MOTION_DOT = .327E-5
MEAN_MOTION_DDOT = 0

CCSDS_OMM_VERS = 2.0
CREATION_DATE  = 
ORIGINATOR     = 

OBJECT_NAME    = SL-16 R/B
OBJECT_ID      = 1995-058B
CENTER_NAME    = EARTH
REF_FRAME      = TEME
TIME_SYSTEM    = UTC
MEAN_ELEMENT_THEORY = SGP/SGP4

EPOCH          = 2026-02-03T06:55:04.975392
MEAN_MOTION    = 14.15488970
ECCENTRICITY   = .00126175
INCLINATION    = 71.0190
RA_OF_ASC_NODE = 252.4805
ARG_OF_PERICENTER = 181.7802
MEAN_ANOMALY   = 178.3279

EPHEMERIS_TYPE = 0
CLASSIFICATION_TYPE = U
NORAD_CAT_ID   = 23705
ELEMENT_SET_NO = 999
REV_AT_EPOCH   = 56298
BSTAR          = .12534285E-3
MEAN_MOTION_DOT = .198E-5
MEAN_MOTION_DDOT = 0

CCSDS_OMM_VERS = 2.0
CREATION_DATE  = 
ORIGINATOR     = 

OBJECT_NAME    = SL-16 R/B
OBJECT_ID      = 1996-051B
CENTER_NAME    = EARTH
REF_FRAME      = TEME
TIME_SYSTEM    = UTC
MEAN_ELEMENT_THEORY = SGP/SGP4

EPOCH          = 2026-02-03T00:55:30.150624
MEAN_MOTION    = 14.12405632
ECCENTRICITY   = .00179498
INCLINATION    = 70.7567
RA_OF_ASC_NODE = 248.5840
ARG_OF_PERICENTER = 196.0364
MEAN_ANOMALY   = 164.0190

EPHEMERIS_TYPE = 0
CLASSIFICATION_TYPE = U
NORAD_CAT_ID   = 24298
ELEMENT_SET_NO = 999
REV_AT_EPOCH   = 51675
BSTAR          = .61691088E-4
MEAN_MOTION_DOT = .65E-6
MEAN_MOTION_DDOT = 0

CCSDS_OMM_VERS = 2.0
CREATION_DATE  = 
ORIGINATOR     = 

OBJECT_NAME    = ORBVIEW 2 (SEASTAR)
OBJECT_ID      = 1997-037A
CENTER_NAME    = EARTH
REF_FRAME      = TEME
TIME_SYSTEM    = UTC
MEAN_ELEMENT_THEORY = SGP/SGP4

EPOCH          = 2026-02-03T04:39:07.805376
MEAN_MOTION    = 14.35466785
ECCENTRICITY   = .00027458
INCLINATION    = 98.8508
RA_OF_ASC_NODE = 197.6035
ARG_OF_PERICENTER = 143.0245
MEAN_ANOMALY   = 217.1129

EPHEMERIS_TYPE = 0
CLASSIFICATION_TYPE = U
NORAD_CAT_ID   = 24883
ELEMENT_SET_NO = 999
REV_AT_EPOCH   = 50352
BSTAR          = .13187839E-3
MEAN_MOTION_DOT = .332E-5
MEAN_MOTION_DDOT = 0

