SL-16 R/B               
1 22566U 93016B   26034.14804864  .00000093  00000+0  72172-4 0  9994
2 22566  71.0082 287.7327 0009936   2.7071 357.4104 14.15303514697284
COSMOS 2242             
1 22626U 93024A   26034.20025787  .00002610  00000+0  22747-3 0  9995
2 22626  82.5203 299.7017 0017948  63.4816 296.8244 14.96397499775232
SL-16 R/B               
1 22803U 93059B   26034.24495215  .00000244  00000+0  14425-3 0  9996
2 22803  70.9894  83.7672 0019488 263.4798  96.4107 14.17224561674654
ARIANE 40 R/B           
1 22830U 93061H   26034.20210428  .00000256  00000+0  10951-3 0  9999
2 22830  98.4989 103.7578 0011141  32.0777 328.1083 14.32841906689162
COSMOS 2278             
1 23087U 94023A   26034.29651420 -.00000228  00000+0 -94701-4 0  9990
2 23087  71.0509 247.0547 0006390  78.2298 281.9541 14.14365100639943
SL-16 R/B               
1 23088U 94023B   26033.51028521 -.00000214  00000+0 -85745-4 0  9998
2 23088  71.0000 144.7683 0004411 318.0520  42.0264 14.15004168641114
SL-16 R/B               
1 23343U 94074B   26034.09617211  .00000515  00000+0  75782-4 0  9994
2 23343  97.7151  66.3081 0006097 346.9402  76.9401 14.79364536682136
SL-16 R/B               
1 23405U 94077B   26034.21228394 -.00000161  00000+0 -58000-4 0  9993
2 23405  70.9815  65.0241 0004542 242.3836 117.6825 14.15556696611351
ARIANE 40+ R/B          
1 23561U 95021B   26034.19987042  .00000327  00000+0  11837-3 0  9993
2 23561  98.4567 106.1376 0005814 239.7952 140.8409 14.39745720614286
SL-16 R/B               
1 23705U 95058B   26034.28825203  .00000198  00000+0  12534-3 0  9994
2 23705  71.0190 252.4805 0012617 181.7802 178.3279 14.15488970562981
SL-16 R/B               
1 24298U 96051B   26034.03854341  .00000065  00000+0  61691-4 0  9996
2 24298  70.7567 248.5840 0017949 196.0364 164.0190 14.12405632516752
ORBVIEW 2 (SEASTAR)     
1 24883U 97037A   26034.19384034  .00000332  00000+0  13188-3 0  9999
2 24883  98.8508 197.6035 0002745 143.0245 217.1129 14.35466785503520
